{"type": "FeatureCollection", "features": [ {"type": "Feature", "properties": {"norad_id": 32174, "name": "FENGYUN 1C DEB", "group": "fengyun-1c-debris", "lat": -13.775992038131516, "lon": -143.01198776767276, "alt_km": 819.2967867941197, "timestamp": "2025-12-02T15:49:07.476045+00:00", "meta": {"OBJECT_NAME": "FENGYUN 1C DEB", "OBJECT_ID": "1999-025CTU", "EPOCH": "2025-11-24T10:25:59.655072", "MEAN_MOTION": 14.17883196, "ECCENTRICITY": 0.01501888, "INCLINATION": 98.6025, "RA_OF_ASC_NODE": 31.1449, "ARG_OF_PERICENTER": 298.935, "MEAN_ANOMALY": 59.6834, "EPHEMERIS_TYPE": 0, "CLASSIFICATION_TYPE": "U", "NORAD_CAT_ID": 32174, "ELEMENT_SET_NO": 999, "REV_AT_EPOCH": 63846, "BSTAR": 0.00027509636, "MEAN_MOTION_DOT": 5.84e-06, "MEAN_MOTION_DDOT": 0}, "tle": {"line1": "1 32174U 99025CTU 25328.43471823  .00000584  00000+0  27510-3 0  9998", "line2": "2 32174  98.6025  31.1449 0150188 298.9350  59.6834 14.17883196638460"}}, "geometry": {"type": "Point", "coordinates": [-143.01198776767276, -13.775992038131516]}}, {"type": "Feature", "properties": {"norad_id": 32175, "name": "FENGYUN 1C DEB", "group": "fengyun-1c-debris", "lat": -23.083778331515415, "lon": 141.86571496495787, "alt_km": 1010.8707693261504, "timestamp": "2025-12-02T15:49:07.476056+00:00", "meta": {"OBJECT_NAME": "FENGYUN 1C DEB", "OBJECT_ID": "1999-025CTV", "EPOCH": "2025-11-30T18:04:30.432000", "MEAN_MOTION": 13.94645307, "ECCENTRICITY": 0.01526915, "INCLINATION": 98.8237, "RA_OF_ASC_NODE": 323.8389, "ARG_OF_PERICENTER": 355.8244, "MEAN_ANOMALY": 4.1634, "EPHEMERIS_TYPE": 0, "CLASSIFICATION_TYPE": "U", "NORAD_CAT_ID": 32175, "ELEMENT_SET_NO": 999, "REV_AT_EPOCH": 59673, "BSTAR": 0.0032372864, "MEAN_MOTION_DOT": 4.731e-05, "MEAN_MOTION_DDOT": 0}, "tle": {"line1": "1 32175U 99025CTV 25334.75313000  .00004731  00000+0  32373-2 0  9993", "line2": "2 32175  98.8237 323.8389 0152691 355.8244   4.1634 13.94645307596738"}}, "geometry": {"type": "Point", "coordinates": [141.86571496495787, -23.083778331515415]}}, {"type": "Feature", "properties": {"norad_id": 32177, "name": "FENGYUN 1C DEB", "group": "fengyun-1c-debris", "lat": -80.31921253902546, "lon": 54.16428580700585, "alt_km": 748.6409820164554, "timestamp": "2025-12-02T15:49:07.476066+00:00", "meta": {"OBJECT_NAME": "FENGYUN 1C DEB", "OBJECT_ID": "1999-025CTX", "EPOCH": "2025-11-29T07:24:03.692448", "MEAN_MOTION": 14.55966647, "ECCENTRICITY": 0.00524557, "INCLINATION": 99.0454, "RA_OF_ASC_NODE": 341.4938, "ARG_OF_PERICENTER": 85.1127, "MEAN_ANOMALY": 275.6054, "EPHEMERIS_TYPE": 0, "CLASSIFICATION_TYPE": "U", "NORAD_CAT_ID": 32177, "ELEMENT_SET_NO": 999, "REV_AT_EPOCH": 70843, "BSTAR": 0.0012780611, "MEAN_MOTION_DOT": 5.674e-05, "MEAN_MOTION_DDOT": 0}, "tle": {"line1": "1 32177U 99025CTX 25333.30837607  .00005674  00000+0  12781-2 0  9997", "line2": "2 32177  99.0454 341.4938 0052455  85.1127 275.6054 14.55966647708434"}}, "geometry": {"type": "Point", "coordinates": [54.16428580700585, -80.31921253902546]}}, {"type": "Feature", "properties": {"norad_id": 32178, "name": "FENGYUN 1C DEB", "group": "fengyun-1c-debris", "lat": -64.76311459615653, "lon": 133.68989208161653, "alt_km": 839.0901170788347, "timestamp": "2025-12-02T15:49:07.476076+00:00", "meta": {"OBJECT_NAME": "FENGYUN 1C DEB", "OBJECT_ID": "1999-025CTY", "EPOCH": "2025-11-26T06:46:13.443456", "MEAN_MOTION": 14.22843314, "ECCENTRICITY": 0.00951304, "INCLINATION": 100.3039, "RA_OF_ASC_NODE": 328.9436, "ARG_OF_PERICENTER": 8.654, "MEAN_ANOMALY": 351.6247, "EPHEMERIS_TYPE": 0, "CLASSIFICATION_TYPE": "U", "NORAD_CAT_ID": 32178, "ELEMENT_SET_NO": 999, "REV_AT_EPOCH": 63769, "BSTAR": 0.0014846781, "MEAN_MOTION_DOT": 3.436e-05, "MEAN_MOTION_DDOT": 0}, "tle": {"line1": "1 32178U 99025CTY 25330.28210004  .00003436  00000+0  14847-2 0  9997", "line2": "2 32178 100.3039 328.9436 0095130   8.6540 351.6247 14.22843314637696"}}, "geometry": {"type": "Point", "coordinates": [133.68989208161653, -64.76311459615653]}}, {"type": "Feature", "properties": {"norad_id": 32179, "name": "FENGYUN 1C DEB", "group": "fengyun-1c-debris", "lat": -62.69504211386795, "lon": -172.0050259971221, "alt_km": 793.5973479876748, "timestamp": "2025-12-02T15:49:07.476087+00:00", "meta": {"OBJECT_NAME": "FENGYUN 1C DEB", "OBJECT_ID": "1999-025CTZ", "EPOCH": "2025-12-02T02:49:36.295680", "MEAN_MOTION": 14.03672584, "ECCENTRICITY": 0.01446688, "INCLINATION": 98.9109, "RA_OF_ASC_NODE": 25.1565, "ARG_OF_PERICENTER": 219.4831, "MEAN_ANOMALY": 169.8583, "EPHEMERIS_TYPE": 0, "CLASSIFICATION_TYPE": "U", "NORAD_CAT_ID": 32179, "ELEMENT_SET_NO": 999, "REV_AT_EPOCH": 65579, "BSTAR": 0.00010683017, "MEAN_MOTION_DOT": 1.4e-06, "MEAN_MOTION_DDOT": 0}, "tle": {"line1": "1 32179U 99025CTZ 25336.11778120  .00000140  00000+0  10683-3 0  9998", "line2": "2 32179  98.9109  25.1565 0144668 219.4831 169.8583 14.03672584655793"}}, "geometry": {"type": "Point", "coordinates": [-172.0050259971221, -62.69504211386795]}}, {"type": "Feature", "properties": {"norad_id": 32180, "name": "FENGYUN 1C DEB", "group": "fengyun-1c-debris", "lat": -37.06550498210082, "lon": -170.72454500611602, "alt_km": 867.7542043501089, "timestamp": "2025-12-02T15:49:07.476097+00:00", "meta": {"OBJECT_NAME": "FENGYUN 1C DEB", "OBJECT_ID": "1999-025CUA", "EPOCH": "2025-12-01T09:17:04.428384", "MEAN_MOTION": 13.82323041, "ECCENTRICITY": 0.01359827, "INCLINATION": 99.5875, "RA_OF_ASC_NODE": 15.3164, "ARG_OF_PERICENTER": 240.4559, "MEAN_ANOMALY": 129.7781, "EPHEMERIS_TYPE": 0, "CLASSIFICATION_TYPE": "U", "NORAD_CAT_ID": 32180, "ELEMENT_SET_NO": 999, "REV_AT_EPOCH": 94111, "BSTAR": 0.00013235725, "MEAN_MOTION_DOT": 1.06e-06, "MEAN_MOTION_DDOT": 0}, "tle": {"line1": "1 32180U 99025CUA 25335.38685681  .00000106  00000+0  13236-3 0  9996", "line2": "2 32180  99.5875  15.3164 0135982 240.4559 129.7781 13.82323041941114"}}, "geometry": {"type": "Point", "coordinates": [-170.72454500611602, -37.06550498210082]}}, {"type": "Feature", "properties": {"norad_id": 32181, "name": "FENGYUN 1C DEB", "group": "fengyun-1c-debris", "lat": -4.384698810467838, "lon": 79.82180653447374, "alt_km": 735.641319297496, "timestamp": "2025-12-02T15:49:07.476107+00:00", "meta": {"OBJECT_NAME": "FENGYUN 1C DEB", "OBJECT_ID": "1999-025CUB", "EPOCH": "2025-11-30T18:20:52.902816", "MEAN_MOTION": 14.5587127, "ECCENTRICITY": 0.00742263, "INCLINATION": 99.4729, "RA_OF_ASC_NODE": 76.9403, "ARG_OF_PERICENTER": 120.9158, "MEAN_ANOMALY": 31.1571, "EPHEMERIS_TYPE": 0, "CLASSIFICATION_TYPE": "U", "NORAD_CAT_ID": 32181, "ELEMENT_SET_NO": 999, "REV_AT_EPOCH": 96546, "BSTAR": 0.0011280546, "MEAN_MOTION_DOT": 5.08e-05, "MEAN_MOTION_DDOT": 0}, "tle": {"line1": "1 32181U 99025CUB 25334.76450119  .00005080  00000+0  11281-2 0  9997", "line2": "2 32181  99.4729  76.9403 0074226 120.9158  31.1571 14.55871270965461"}}, "geometry": {"type": "Point", "coordinates": [79.82180653447374, -4.384698810467838]}}, {"type": "Feature", "properties": {"norad_id": 32183, "name": "FENGYUN 1C DEB", "group": "fengyun-1c-debris", "lat": 33.51944972785689, "lon": 22.34697465664963, "alt_km": 838.907435829984, "timestamp": "2025-12-02T15:49:07.476118+00:00", "meta": {"OBJECT_NAME": "FENGYUN 1C DEB", "OBJECT_ID": "1999-025CUD", "EPOCH": "2025-11-29T02:30:25.585056", "MEAN_MOTION": 14.10035757, "ECCENTRICITY": 0.00433984, "INCLINATION": 98.7148, "RA_OF_ASC_NODE": 24.735, "ARG_OF_PERICENTER": 99.0174, "MEAN_ANOMALY": 261.5912, "EPHEMERIS_TYPE": 0, "CLASSIFICATION_TYPE": "U", "NORAD_CAT_ID": 32183, "ELEMENT_SET_NO": 999, "REV_AT_EPOCH": 72572, "BSTAR": 0.00069136129, "MEAN_MOTION_DOT": 1.189e-05, "MEAN_MOTION_DDOT": 0}, "tle": {"line1": "1 32183U 99025CUD 25333.10446279  .00001189  00000+0  69136-3 0  9997", "line2": "2 32183  98.7148  24.7350 0043398  99.0174 261.5912 14.10035757725726"}}, "geometry": {"type": "Point", "coordinates": [22.34697465664963, 33.51944972785689]}}, {"type": "Feature", "properties": {"norad_id": 32184, "name": "FENGYUN 1C DEB", "group": "fengyun-1c-debris", "lat": 77.75354401121042, "lon": -24.033093205126047, "alt_km": 420.7127844849729, "timestamp": "2025-12-02T15:49:07.476128+00:00", "meta": {"OBJECT_NAME": "FENGYUN 1C DEB", "OBJECT_ID": "1999-025CUE", "EPOCH": "2025-11-29T15:43:46.155648", "MEAN_MOTION": 15.41244079, "ECCENTRICITY": 0.00737243, "INCLINATION": 98.1191, "RA_OF_ASC_NODE": 111.5023, "ARG_OF_PERICENTER": 34.7178, "MEAN_ANOMALY": 325.8845, "EPHEMERIS_TYPE": 0, "CLASSIFICATION_TYPE": "U", "NORAD_CAT_ID": 32184, "ELEMENT_SET_NO": 999, "REV_AT_EPOCH": 98202, "BSTAR": 0.0015682577, "MEAN_MOTION_DOT": 0.00072323, "MEAN_MOTION_DDOT": 0}, "tle": {"line1": "1 32184U 99025CUE 25333.65539532  .00072323  00000+0  15683-2 0  9998", "line2": "2 32184  98.1191 111.5023 0073724  34.7178 325.8845 15.41244079982028"}}, "geometry": {"type": "Point", "coordinates": [-24.033093205126047, 77.75354401121042]}}, {"type": "Feature", "properties": {"norad_id": 32185, "name": "FENGYUN 1C DEB", "group": "fengyun-1c-debris", "lat": -28.193759784006428, "lon": -173.75936279371527, "alt_km": 537.4184002747943, "timestamp": "2025-12-02T15:49:07.476138+00:00", "meta": {"OBJECT_NAME": "FENGYUN 1C DEB", "OBJECT_ID": "1999-025CUF", "EPOCH": "2025-12-01T19:09:31.510368", "MEAN_MOTION": 15.01936912, "ECCENTRICITY": 0.01658317, "INCLINATION": 98.9034, "RA_OF_ASC_NODE": 180.4328, "ARG_OF_PERICENTER": 50.6051, "MEAN_ANOMALY": 310.9722, "EPHEMERIS_TYPE": 0, "CLASSIFICATION_TYPE": "U", "NORAD_CAT_ID": 32185, "ELEMENT_SET_NO": 999, "REV_AT_EPOCH": 94851, "BSTAR": 0.0024673936, "MEAN_MOTION_DOT": 0.00043635, "MEAN_MOTION_DDOT": 0}, "tle": {"line1": "1 32185U 99025CUF 25335.79828137  .00043635  00000+0  24674-2 0  9992", "line2": "2 32185  98.9034 180.4328 0165831  50.6051 310.9722 15.01936912948519"}}, "geometry": {"type": "Point", "coordinates": [-173.75936279371527, -28.193759784006428]}}]}